ONEWEB-0331             
1 49198U 21083N   25256.12221349 -.00000001  00000+0 -34933-4 0  9997
2 49198  87.9185  30.4629 0002154  98.1541 261.9836 13.18687015193496
ONEWEB-0333             
1 49199U 21083P   25256.08225927  .00000239  00000+0  62066-3 0  9997
2 49199  87.9020  15.3152 0001719  98.6010 261.5314 13.13470979194537
ONEWEB-0334             
1 49200U 21083Q   25255.64540937 -.00000062  00000+0 -18376-3 0  9993
2 49200  87.9269 329.7971 0000886  89.3965 270.7270 13.20771056200153
ONEWEB-0335             
1 49201U 21083R   25256.30570685  .00000130  00000+0  32209-3 0  9996
2 49201  87.9019  15.2585 0001932  97.6970 262.4378 13.13471596194579
ONEWEB-0336             
1 49202U 21083S   25256.04839056 -.00000256  00000+0 -73579-3 0  9994
2 49202  87.9023  15.3036 0001782  95.2533 264.8800 13.13471059194535
ONEWEB-0337             
1 49203U 21083T   25256.28692881 -.00000195  00000+0 -56901-3 0  9996
2 49203  87.9034  15.2603 0001930 104.2906 255.8437 13.13471033194568
ONEWEB-0338             
1 49204U 21083U   25255.99893034 -.00000190  00000+0 -49892-3 0  9993
2 49204  87.9283 329.7255 0001634  99.3368 260.7950 13.20770051200224
ONEWEB-0339             
1 49205U 21083V   25256.14318702 -.00000152  00000+0 -45210-3 0  9994
2 49205  87.9031  15.2731 0001711 104.1183 256.0137 13.13472291194525
